H1 CPF  1  MCC 2022 11 18 14  8221 larets
H2  0304206 5557    27944 2022 11 17 23 45 00 2022 11 22 23 57 00   180 1 1  0 0 0
H9
10 0 59904 62460.000000 0     -3820354.611      4801428.256      3498557.347
10 0 59904 62640.000000 0     -3109482.680      4376809.081      4584293.635
10 0 59904 62820.000000 0     -2299028.941      3773042.981      5502086.790
10 0 59904 63000.000000 0     -1422897.698      3009895.057      6218280.977
10 0 59904 63180.000000 0      -516783.444      2113849.146      6706594.833
10 0 59904 63360.000000 0       383290.254      1117168.236      6949063.166
10 0 59904 63540.000000 0      1242405.020        56722.315      6936682.892
10 0 59904 63720.000000 0      2028106.509     -1027377.811      6669746.347
10 0 59904 63900.000000 0      2711640.418     -2093299.705      6157856.999
10 0 59904 64080.000000 0      3269026.833     -3099113.893      5419619.911
10 0 59904 64260.000000 0      3681933.569     -4004467.765      4482004.999
10 0 59904 64440.000000 0      3938312.965     -4772244.333      3379393.212
10 0 59904 64620.000000 0      4032773.016     -5370134.909      2152324.174
10 0 59904 64800.000000 0      3966660.064     -5772047.348       845984.200
10 0 59904 64980.000000 0      3747845.288     -5959273.035      -491506.928
10 0 59904 65160.000000 0      3390226.744     -5921350.853     -1810933.880
10 0 59904 65340.000000 0      2912969.153     -5656579.692     -3063867.929
10 0 59904 65520.000000 0      2339526.869     -5172152.518     -4204498.190
10 0 59904 65700.000000 0      1696504.568     -4483910.644     -5191328.205
10 0 59904 65880.000000 0      1012425.094     -3615744.429     -5988661.496
10 0 59904 66060.000000 0       316472.243     -2598687.414     -6567833.071
10 0 59904 66240.000000 0      -362739.183     -1469752.972     -6908160.208
10 0 59904 66420.000000 0      -998313.373      -270564.040     -6997599.570
10 0 59904 66600.000000 0     -1566105.622       954171.700     -6833109.450
10 0 59904 66780.000000 0     -2045610.364      2158292.175     -6420720.557
10 0 59904 66960.000000 0     -2420679.606      3295874.548     -5775324.388
10 0 59904 67140.000000 0     -2680057.243      4322950.922     -4920182.424
10 0 59904 67320.000000 0     -2817713.634      5199196.462     -3886153.645
10 0 59904 67500.000000 0     -2832965.494      5889526.018     -2710644.891
10 0 59904 67680.000000 0     -2730371.873      6365532.231     -1436313.192
10 0 59904 67860.000000 0     -2519408.988      6606704.074      -109548.297
10 0 59904 68040.000000 0     -2213934.933      6601355.483      1221213.201
10 0 59904 68220.000000 0     -1831464.104      6347213.534      2507286.994
10 0 59904 68400.000000 0     -1392279.465      5851607.667      3701565.659
10 0 59904 68580.000000 0      -918439.114      5131263.534      4760274.962
10 0 59904 68760.000000 0      -432726.891      4211714.727      5644600.239
10 0 59904 68940.000000 0        42406.262      3126357.397      6322110.458
10 0 59904 69120.000000 0       485851.165      1915201.204      6767934.320
10 0 59904 69300.000000 0       878759.493       623367.409      6965654.575
10 0 59904 69480.000000 0      1205336.462      -700605.707      6907898.459
10 0 59904 69660.000000 0      1453477.398     -2006590.173      6596616.847
10 0 59904 69840.000000 0      1615226.352     -3244776.623      6043042.697
10 0 59904 70020.000000 0      1687039.383     -4367599.168      5267320.318
10 0 59904 70200.000000 0      1669842.177     -5331602.429      4297807.387
10 0 59904 70380.000000 0      1568883.350     -6099183.111      3170069.809
10 0 59904 70560.000000 0      1393383.664     -6640132.507      1925580.705
10 0 59904 70740.000000 0      1155994.493     -6932893.591       610171.532
10 0 59904 70920.000000 0       872092.569     -6965474.486      -727705.105
10 0 59904 71100.000000 0       558942.485     -6735957.513     -2038835.491
10 0 59904 71280.000000 0       234777.958     -6252562.647     -3275126.979
10 0 59904 71460.000000 0       -82142.131     -5533283.481     -4391416.652
10 0 59904 71640.000000 0      -374456.720     -4605123.761     -5347133.512
10 0 59904 71820.000000 0      -626557.089     -3502985.065     -6107742.810
10 0 59904 72000.000000 0      -825331.545     -2268274.765     -6645930.826
10 0 59904 72180.000000 0      -960770.451      -947302.957     -6942503.777
10 0 59904 72360.000000 0     -1026412.312       410461.948     -6986991.891
10 0 59904 72540.000000 0     -1019617.344      1754218.977     -6777959.164
10 0 59904 72720.000000 0      -941662.879      3033686.192     -6323024.798
10 0 59904 72900.000000 0      -797660.322      4200934.115     -5638604.235
10 0 59904 73080.000000 0      -596295.335      5212154.498     -4749367.407
10 0 59904 73260.000000 0      -349400.061      6029307.779     -3687416.640
10 0 59904 73440.000000 0       -71371.686      6621588.800     -2491192.234
10 0 59904 73620.000000 0       221542.645      6966645.813     -1204130.661
10 0 59904 73800.000000 0       512064.182      7051493.563       126889.626
10 0 59904 73980.000000 0       782767.648      6873064.317      1453262.391
10 0 59904 74160.000000 0      1016986.314      6438356.678      2726457.940
10 0 59904 74340.000000 0      1199684.852      5764171.006      3899833.773
10 0 59904 74520.000000 0      1318261.186      4876447.907      4930375.820
10 0 59904 74700.000000 0      1363235.782      3809233.244      5780300.846
10 0 59904 74880.000000 0      1328788.292      2603322.542      6418437.675
10 0 59904 75060.000000 0      1213123.458      1304667.936      6821353.546
10 0 59904 75240.000000 0      1018647.227       -37397.658      6974196.950
10 0 59904 75420.000000 0       751946.919     -1372044.120      6871232.767
10 0 59904 75600.000000 0       423572.982     -2648876.374      6516067.738
10 0 59904 75780.000000 0        47626.230     -3819856.001      5921548.433
10 0 59904 75960.000000 0      -358833.425     -4841137.586      5109325.111
10 0 59904 76140.000000 0      -776533.257     -5674753.589      4109104.288
10 0 59904 76320.000000 0     -1184868.842     -6290100.420      2957594.538
10 0 59904 76500.000000 0     -1562881.559     -6665140.220      1697157.197
10 0 59904 76680.000000 0     -1890282.780     -6787256.782       374218.638
10 0 59904 76860.000000 0     -2148472.317     -6653714.800      -962500.026
10 0 59904 77040.000000 0     -2321489.221     -6271691.775     -2263849.549
10 0 59904 77220.000000 0     -2396848.563     -5657887.298     -3482124.896
10 0 59904 77400.000000 0     -2366220.335     -4837732.967     -4572857.973
10 0 59904 77580.000000 0     -2225914.988     -3844254.173     -5496444.812
10 0 59904 77760.000000 0     -1977158.852     -2716661.804     -6219545.576
10 0 59904 77940.000000 0     -1626153.492     -1498748.279     -6716222.352
10 0 59904 78120.000000 0     -1183920.184      -237160.200     -6968786.447
10 0 59904 78300.000000 0      -665944.342      1020377.875     -6968347.308
10 0 59904 78480.000000 0       -91632.412      2226829.076     -6715071.333
10 0 59904 78660.000000 0       516400.248      3337554.169     -6218156.401
10 0 59904 78840.000000 0      1133195.290      4311926.650     -5495524.435
10 0 59904 79020.000000 0      1732445.261      5114803.380     -4573227.215
10 0 59904 79200.000000 0      2287583.108      5717807.230     -3484575.894
10 0 59904 79380.000000 0      2772928.860      6100370.898     -2269000.899
10 0 59904 79560.000000 0      3164846.554      6250494.992      -970669.839
10 0 59904 79740.000000 0      3442856.870      6165176.751       363102.101
10 0 59904 79920.000000 0      3590644.663      5850474.736      1683588.770
10 0 59904 80100.000000 0      3596910.304      5321203.473      2942460.420
10 0 59904 80280.000000 0      3456018.515      4600270.353      4093589.638
10 0 59904 80460.000000 0      3168409.799      3717680.135      5094774.125
10 0 59904 80640.000000 0      2740745.737      2709262.684      5909303.643
10 0 59904 80820.000000 0      2185786.429      1615187.363      6507299.683
10 0 59904 81000.000000 0      1522015.739       478339.589      6866794.997
10 0 59904 81180.000000 0       773019.488      -657373.959      6974520.858
10 0 59904 81360.000000 0       -33356.003     -1748725.638      6826391.220
10 0 59904 81540.000000 0      -866041.784     -2754823.995      6427667.980
10 0 59904 81720.000000 0     -1691944.817     -3638664.092      5792794.689
10 0 59904 81900.000000 0     -2477261.417     -4368515.768      4944910.007
10 0 59904 82080.000000 0     -3188875.547     -4919111.002      3915050.161
10 0 59904 82260.000000 0     -3795784.085     -5272576.893      2741034.118
10 0 59904 82440.000000 0     -4270469.663     -5419061.636      1466065.655
10 0 59904 82620.000000 0     -4590158.363     -5357023.233       137108.425
10 0 59904 82800.000000 0     -4737897.629     -5093160.514     -1196903.425
10 0 59904 82980.000000 0     -4703392.435     -4641987.059     -2486940.205
10 0 59904 83160.000000 0     -4483549.823     -4025067.562     -3685745.215
10 0 59904 83340.000000 0     -4082707.673     -3269967.995     -4749600.734
10 0 59904 83520.000000 0     -3512547.874     -2408987.990     -5639918.140
10 0 59904 83700.000000 0     -2791708.310     -1477744.542     -6324595.296
10 0 59904 83880.000000 0     -1945122.214      -513679.275     -6779103.456
10 0 59904 84060.000000 0     -1003117.928       445444.636     -6987280.725
10 0 59904 84240.000000 0         -324.337      1362994.294     -6941827.135
10 0 59904 84420.000000 0      1025581.376      2204826.507     -6644514.462
10 0 59904 84600.000000 0      2035254.883      2940521.966     -6106114.504
10 0 59904 84780.000000 0      2989159.783      3544463.235     -5346038.113
10 0 59904 84960.000000 0      3849087.197      3996721.289     -4391690.814
10 0 59904 85140.000000 0      4579675.701      4283727.516     -3277555.408
10 0 59904 85320.000000 0      5149876.038      4398701.135     -2044007.259
99
